{
    "links": {
        "self": "http://www.neowsapp.com/rest/v1/neo/3788046?api_key=iIulBulltgU6a56xZRHN4H3l9WmuAYTsLGpBGhQ2"
    },
    "id": "3788046",
    "neo_reference_id": "3788046",
    "name": "(2017 UJ6)",
    "designation": "2017 UJ6",
    "nasa_jpl_url": "http://ssd.jpl.nasa.gov/sbdb.cgi?sstr=3788046",
    "absolute_magnitude_h": 26.6,
    "estimated_diameter": {
        "kilometers": {
            "estimated_diameter_min": 0.0127219879,
            "estimated_diameter_max": 0.0284472297
        },
        "meters": {
            "estimated_diameter_min": 12.7219878539,
            "estimated_diameter_max": 28.4472296503
        },
        "miles": {
            "estimated_diameter_min": 0.0079050743,
            "estimated_diameter_max": 0.0176762835
        },
        "feet": {
            "estimated_diameter_min": 41.7388066307,
            "estimated_diameter_max": 93.330808926
        }
    },
    "is_potentially_hazardous_asteroid": false,
    "close_approach_data": [
        {
            "close_approach_date": "2017-10-30",
            "close_approach_date_full": "2017-Oct-30 20:22",
            "epoch_date_close_approach": 1509394920000,
            "relative_velocity": {
                "kilometers_per_second": "11.3292804084",
                "kilometers_per_hour": "40785.4094700838",
                "miles_per_hour": "25342.4673454529"
            },
            "miss_distance": {
                "astronomical": "0.014119078",
                "lunar": "5.492321342",
                "kilometers": "2112183.99516386",
                "miles": "1312450.275466868"
            },
            "orbiting_body": "Earth"
        }
    ],
    "orbital_data": {
        "orbit_id": "3",
        "orbit_determination_date": "2017-10-31 06:19:37",
        "first_observation_date": "2017-10-25",
        "last_observation_date": "2017-10-30",
        "data_arc_in_days": 5,
        "observations_used": 41,
        "orbit_uncertainty": "8",
        "minimum_orbit_intersection": ".0135586",
        "jupiter_tisserand_invariant": "3.902",
        "epoch_osculation": "2458052.5",
        "eccentricity": ".4989497848642988",
        "semi_major_axis": "1.795443673690092",
        "inclination": "9.610641789203116",
        "ascending_node_longitude": "34.00187825144099",
        "orbital_period": "878.7313170697897",
        "perihelion_distance": ".8996074389664543",
        "perihelion_argument": "49.6317784736468",
        "aphelion_distance": "2.691279908413729",
        "perihelion_time": "2458092.355432607977",
        "mean_anomaly": "343.6719649565737",
        "mean_motion": ".4096815408837972",
        "equinox": "J2000",
        "orbit_class": {
            "orbit_class_type": "APO",
            "orbit_class_description": "Near-Earth asteroid orbits which cross the Earth’s orbit similar to that of 1862 Apollo",
            "orbit_class_range": "a (semi-major axis) > 1.0 AU; q (perihelion) < 1.017 AU"
        }
    },
    "is_sentry_object": false
}